NORAD_CAT_ID,OBJECT_NAME,OBJECT_TYPE,EPOCH,MEAN_MOTION,ECCENTRICITY,INCLINATION,RA_OF_ASC_NODE,ARG_OF_PERICENTER,MEAN_ANOMALY,BSTAR,MEAN_MOTION_DOT,MEAN_MOTION_DDOT,TLE_LINE0,TLE_LINE1,TLE_LINE2,SEMIMAJOR_AXIS,PERIOD,APOGEE,PERIGEE,DECAYED
49147.0,STARLINK-3071,PAYLOAD,2021-12-03 06:00:00,15.69713434,0.0003563999999999,69.998,261.6391,281.4254,226.8209,4.7976e-05,5.51e-05,0.0,0 STARLINK-3071,1 49147U 21082T   21337.25001157  .00005510  00000-0  47976-4 0  9993,2 49147  69.9980 261.6391 0003564 281.4254 226.8209 15.69713434 13848,6737.854,91.736,362.12,357.3180000000001,0.0
49147.0,STARLINK-3071,PAYLOAD,2021-12-03 14:00:01,15.69325267,0.0003867,69.9997,260.7058,279.9442,311.5312,0.0041292,0.00515221,0.0,0 STARLINK-3071,1 49147U 21082T   21337.58334491  .00515221  00000-0  41292-2 0  9997,2 49147  69.9997 260.7058 0003867 279.9442 311.5312 15.69325267 13898,6738.965,91.759,363.436,358.224,0.0
49147.0,STARLINK-3071,PAYLOAD,2021-12-03 22:00:00,15.69761364,0.0003528,69.9991,259.7666,274.999,39.5143,-0.00025434,-0.00030481,0.0,0 STARLINK-3071,1 49147U 21082T   21337.91667824 -.00030481  00000-0 -25434-3 0  9996,2 49147  69.9991 259.7666 0003528 274.9990  39.5143 15.69761364 13950,6737.717,91.734,361.959,357.205,0.0
49147.0,STARLINK-3071,PAYLOAD,2021-12-04 06:00:00,15.69740491,0.0003478,69.9985,258.8278,280.5323,117.1179,0.00046003,0.00055047,0.0,0 STARLINK-3071,1 49147U 21082T   21338.25001157  .00055047  00000-0  46003-3 0  9993,2 49147  69.9985 258.8278 0003478 280.5323 117.1179 15.69740491  3712,6737.776,91.735,361.985,357.298,0.0
49147.0,STARLINK-3071,PAYLOAD,2021-12-04 12:00:00,15.69776589,0.0003332,69.9984,258.1252,275.9652,94.0405,-8.072899999999999e-05,-9.849e-05,0.0,0 STARLINK-3071,1 49147U 21082T   21338.50001157 -.00009849  00000-0 -80729-4 0  9996,2 49147  69.9984 258.1252 0003332 275.9652  94.0405 15.69776589 14048,6737.6730000000025,91.733,361.783,357.293,0.0
49147.0,STARLINK-3071,PAYLOAD,2021-12-04 20:00:01,15.6979139,0.000324,69.9985,257.1883,273.2597,179.9001,-0.0005352,-0.00063729,0.0,0 STARLINK-3071,1 49147U 21082T   21338.83334491 -.00063729  00000-0 -53520-3 0  9997,2 49147  69.9985 257.1883 0003240 273.2597 179.9001 15.69791390  3731,6737.630999999999,91.732,361.679,357.31300000000016,0.0
49147.0,STARLINK-3071,PAYLOAD,2021-12-05 06:00:02,15.69746438,0.0003377,69.9979,256.017,280.3166,6.8059,-0.00054476,-0.00064737,0.0,0 STARLINK-3071,1 49147U 21082T   21339.25002315 -.00064737  00000-0 -54476-3 0  9992,2 49147  69.9979 256.0170 0003377 280.3166   6.8059 15.69746438 14166,6737.759,91.735,361.9,357.349,0.0
49147.0,STARLINK-3071,PAYLOAD,2021-12-05 14:00:01,15.69649829,0.0003413,69.9979,255.0799,273.4343,96.7365,0.00070506,0.0008445999999999,0.0,0 STARLINK-3071,1 49147U 21082T   21339.58334491  .00084460  00000-0  70506-3 0  9996,2 49147  69.9979 255.0799 0003413 273.4343  96.7365 15.69649829  3693,6738.036,91.74,362.201,357.601,0.0
49147.0,STARLINK-3071,PAYLOAD,2021-12-05 22:00:00,15.69727016,0.0003467,69.9982,254.1431,274.2209,178.9846,-0.00020118,-0.00024138,0.0,0 STARLINK-3071,1 49147U 21082T   21339.91667824 -.00024138  00000-0 -20118-3 0  9994,2 49147  69.9982 254.1431 0003467 274.2209 178.9846 15.69727016 14266,6737.815,91.736,362.016,357.344,0.0
49147.0,STARLINK-3071,PAYLOAD,2021-12-06 14:00:01,15.69690187,0.0003366,69.9978,252.2693,272.9097,346.5443,0.00068179,0.00081775,0.0,0 STARLINK-3071,1 49147U 21082T   21340.58335648  .00081775  00000-0  68179-3 0  9992,2 49147  69.9978 252.2693 0003366 272.9097 346.5443 15.69690187 14374,6737.92,91.738,362.05300000000005,357.517,0.0
49147.0,STARLINK-3071,PAYLOAD,2021-12-06 22:00:00,15.69766974,0.000341,69.9976,251.3326,273.9392,68.5325,-0.00033223,-0.00039715,0.0,0 STARLINK-3071,1 49147U 21082T   21340.91667824 -.00039715  00000-0 -33223-3 0  9994,2 49147  69.9976 251.3326 0003410 273.9392  68.5325 15.69766974  3695,6737.701,91.733,361.86300000000006,357.26800000000014,0.0
49147.0,STARLINK-3071,PAYLOAD,2021-12-07 06:00:00,15.69745603,0.0003415,69.997,250.3954,279.2981,146.3056,0.00026281,0.00031273,0.0,0 STARLINK-3071,1 49147U 21082T   21341.25001157  .00031273  00000-0  26281-3 0  9998,2 49147  69.9970 250.3954 0003415 279.2981 146.3056 15.69745603 14473,6737.762,91.735,361.92800000000005,357.326,0.0
49147.0,STARLINK-3071,PAYLOAD,2021-12-07 14:00:01,15.69726665,0.0003412,69.997,249.4583,271.9966,236.7547,0.00072084,0.00086652,0.0,0 STARLINK-3071,1 49147U 21082T   21341.58334491  .00086652  00000-0  72084-3 0  9997,2 49147  69.9970 249.4583 0003412 271.9966 236.7547 15.69726665  3686,6737.816,91.736,361.98,357.38199999999995,0.0
49147.0,STARLINK-3071,PAYLOAD,2021-12-07 22:00:00,15.69791428,0.0003439,69.9973,248.5212,273.6146,318.265,-0.00016084,-0.00019402,0.0,0 STARLINK-3071,1 49147U 21082T   21341.91667824 -.00019402  00000-0 -16084-3 0  9992,2 49147  69.9973 248.5212 0003439 273.6146 318.2650 15.69791428  3686,6737.630999999999,91.732,361.81300000000016,357.17900000000014,0.0
49147.0,STARLINK-3071,PAYLOAD,2021-12-08 06:00:02,15.69808655,0.0003543,69.997,247.584,277.7694,37.3416,-0.00071694,-0.00085148,0.0,0 STARLINK-3071,1 49147U 21082T   21342.25002315 -.00085148  00000-0 -71694-3 0  9996,2 49147  69.9970 247.5840 0003543 277.7694  37.3416 15.69808655 14635,6737.581,91.731,361.834,357.059,0.0
49147.0,STARLINK-3071,PAYLOAD,2021-12-08 14:00:01,15.69695703,0.0003549,69.997,246.6472,270.9962,127.226,0.00078283,0.00094088,0.0,0 STARLINK-3071,1 49147U 21082T   21342.58334491  .00094088  00000-0  78283-3 0  9997,2 49147  69.9970 246.6472 0003549 270.9962 127.2260 15.69695703  3682,6737.905,91.738,362.161,357.37800000000016,0.0
49147.0,STARLINK-3071,PAYLOAD,2021-12-08 22:00:00,15.69767927,0.000361,69.998,245.7104,273.4914,207.8248,-0.00027952,-0.00033475,0.0,0 STARLINK-3071,1 49147U 21082T   21342.91667824 -.00033475  00000-0 -27952-3 0  9995,2 49147  69.9980 245.7104 0003610 273.4914 207.8248 15.69767927 14736,6737.698,91.733,361.995,357.131,0.0
49147.0,STARLINK-3071,PAYLOAD,2021-12-09 14:00:01,15.69721568,0.0003592,69.9985,243.8361,270.8711,16.7223,0.00070719,0.00084975,0.0,0 STARLINK-3071,1 49147U 21082T   21343.58334491  .00084975  00000-0  70719-3 0  9998,2 49147  69.9985 243.8361 0003592 270.8711  16.7223 15.69721568 14843,6737.831,91.736,362.116,357.275,0.0
49147.0,STARLINK-3071,PAYLOAD,2021-12-09 22:00:00,15.69793061,0.0003576,69.9988,242.8991,272.7063,98.0208,-0.00024727,-0.00029681,0.0,0 STARLINK-3071,1 49147U 21082T   21343.91667824 -.00029681  00000-0 -24727-3 0  9997,2 49147  69.9988 242.8991 0003576 272.7063  98.0208 15.69793061  3679,6737.626,91.732,361.9,357.082,0.0
49147.0,STARLINK-3071,PAYLOAD,2021-12-10 14:00:01,15.69688898,0.0003253999999999,69.9987,241.0251,270.2477,266.7912,0.00073515,0.00088253,0.0,0 STARLINK-3071,1 49147U 21082T   21344.58334491  .00088253  00000-0  73515-3 0  9999,2 49147  69.9987 241.0251 0003254 270.2477 266.7912 15.69688898  3681,6737.924,91.738,361.982,357.597,0.0
49147.0,STARLINK-3071,PAYLOAD,2021-12-10 22:00:00,15.69753276,0.0003279,69.9989,240.0884,273.4412,346.6907,-0.00019648,-0.00023605,0.0,0 STARLINK-3071,1 49147U 21082T   21344.91667824 -.00023605  00000-0 -19648-3 0  9994,2 49147  69.9989 240.0884 0003279 273.4412 346.6907 15.69753276 15054,6737.74,91.734,361.814,357.396,0.0
49147.0,STARLINK-3071,PAYLOAD,2021-12-11 14:00:01,15.69716257,0.0003284,69.9985,238.2142,269.3445,157.0455,0.00071463,0.00085857,0.0,0 STARLINK-3071,1 49147U 21082T   21345.58334491  .00085857  00000-0  71463-3 0  9997,2 49147  69.9985 238.2142 0003284 269.3445 157.0455 15.69716257 15153,6737.846,91.736,361.924,357.49800000000016,0.0
49147.0,STARLINK-3071,PAYLOAD,2021-12-11 22:00:00,15.69774102,0.0003331,69.9988,237.277,273.0693,236.4486,-8.2794e-05,-0.00010094,0.0,0 STARLINK-3071,1 49147U 21082T   21345.91667824 -.00010094  00000-0 -82794-4 0  9996,2 49147  69.9988 237.2770 0003331 273.0693 236.4486 15.69774102  3686,6737.68,91.733,361.79,357.301,0.0
49147.0,STARLINK-3071,PAYLOAD,2021-12-12 04:00:00,15.69773954,0.0003313,69.9989,236.5742,276.9321,204.9491,5.376e-06,4.3e-06,0.0,0 STARLINK-3071,1 49147U 21082T   21346.16667824  .00000430  00000-0  53760-5 0  9997,2 49147  69.9989 236.5742 0003313 276.9321 204.9491 15.69773954 15243,6737.681,91.733,361.778,357.314,0.0
49147.0,STARLINK-3071,PAYLOAD,2021-12-12 14:00:01,15.69682672,0.000346,69.999,235.4032,269.8744,45.966,0.00075852,0.00091076,0.0,0 STARLINK-3071,1 49147U 21082T   21346.58334491  .00091076  00000-0  75852-3 0  9994,2 49147  69.9990 235.4032 0003460 269.8744  45.9660 15.69682672 15313,6737.941999999999,91.738,362.138,357.476,0.0
49147.0,STARLINK-3071,PAYLOAD,2021-12-12 22:00:01,15.69745528,0.0003522,69.9993,234.4664,272.8837,126.108,-0.00019091,-0.00022937,0.0,0 STARLINK-3071,1 49147U 21082T   21346.91668981 -.00022937  00000-0 -19091-3 0  9990,2 49147  69.9993 234.4664 0003522 272.8837 126.1080 15.69745528 15365,6737.762,91.735,362.0,357.254,0.0
49147.0,STARLINK-3071,PAYLOAD,2021-12-13 14:00:01,15.69721322,0.0003539,69.9988,232.5923,268.3045,296.8715,0.00068081,0.00081764,0.0,0 STARLINK-3071,1 49147U 21082T   21347.58334491  .00081764  00000-0  68081-3 0  9994,2 49147  69.9988 232.5923 0003539 268.3045 296.8715 15.69721322 15462,6737.831,91.736,362.081,357.31199999999984,0.0
49147.0,STARLINK-3071,PAYLOAD,2021-12-13 22:00:00,15.69766969,0.0003549,69.999,231.6553,272.6358,15.6681,9.3635e-07,-1.01e-06,0.0,0 STARLINK-3071,1 49147U 21082T   21347.91667824 -.00000101  00000-0  93635-6 0  9993,2 49147  69.9990 231.6553 0003549 272.6358  15.6681 15.69766969  3697,6737.701,91.733,361.957,357.175,0.0
49147.0,STARLINK-3071,PAYLOAD,2021-12-14 06:00:02,15.69810953,0.0003626,69.9989,230.7182,275.2387,96.2646,-0.0011668,-0.00137603,0.0,0 STARLINK-3071,1 49147U 21082T   21348.25002315 -.00137603  00000-0 -11668-2 0  9990,2 49147  69.9989 230.7182 0003626 275.2387  96.2646 15.69810953 15579,6737.575,91.731,361.883,356.997,0.0
